NORAD_CAT_ID,OBJECT_NAME,OBJECT_TYPE,EPOCH,MEAN_MOTION,ECCENTRICITY,INCLINATION,RA_OF_ASC_NODE,ARG_OF_PERICENTER,MEAN_ANOMALY,BSTAR,MEAN_MOTION_DOT,MEAN_MOTION_DDOT,TLE_LINE0,TLE_LINE1,TLE_LINE2,SEMIMAJOR_AXIS,PERIOD,APOGEE,PERIGEE,DECAYED
52348.0,STARLINK-3829,PAYLOAD,2024-07-05 01:05:34,15.08849444,0.0001039,53.2167,69.3869,72.4134,287.6972,6.6504e-05,7.71e-06,0.0,0 STARLINK-3829,1 52348U 22045T   24187.04554144  .00000771  00000-0  66504-4 0  9994,2 52348  53.2167  69.3869 0001039  72.4134 287.6972 15.08849444123298,6917.852,95.437,540.435,538.998,0.0
52348.0,STARLINK-3829,PAYLOAD,2024-07-05 09:02:30,15.08839938,0.0001353,53.2177,67.9017,96.6015,263.5131,0.00022233,3.252e-05,0.0,0 STARLINK-3829,1 52348U 22045T   24187.37674134  .00003252  00000-0  22233-3 0  9999,2 52348  53.2177  67.9017 0001353  96.6015 263.5131 15.08839938123346,6917.881,95.438,540.682,538.81,0.0
52348.0,STARLINK-3829,PAYLOAD,2024-07-05 20:10:13,15.08827772,0.0001454,53.2174,65.8241,108.0279,252.0872,8.3289e-05,1.037e-05,0.0,0 STARLINK-3829,1 52348U 22045T   24187.84043655  .00001037  00000-0  83289-4 0  9997,2 52348  53.2174  65.8241 0001454 108.0279 252.0872 15.08827772123417,6917.918,95.438,540.789,538.777,0.0
52348.0,STARLINK-3829,PAYLOAD,2024-07-05 21:45:36,15.08830386,0.0001403,53.218,65.524,99.4733,260.6418,6.4077e-05,7.32e-06,0.0,0 STARLINK-3829,1 52348U 22045T   24187.90667609  .00000732  00000-0  64077-4 0  9990,2 52348  53.2180  65.5240 0001403  99.4733 260.6418 15.08830386123429,6917.91,95.438,540.745,538.804,0.0
52348.0,STARLINK-3829,PAYLOAD,2024-07-06 00:56:22,15.08835942,0.0001336,53.2185,64.928,87.3913,272.7232,0.00013289,1.827e-05,0.0,0 STARLINK-3829,1 52348U 22045T   24188.03915212  .00001827  00000-0  13289-3 0  9995,2 52348  53.2185  64.9280 0001336  87.3913 272.7232 15.08835942123445,6917.893,95.438,540.682,538.834,0.0
52348.0,STARLINK-3829,PAYLOAD,2024-07-06 08:53:17,15.08852344,0.0001315,53.2177,63.4399,84.0963,276.0179,0.0001421,1.975e-05,0.0,0 STARLINK-3829,1 52348U 22045T   24188.37034076  .00001975  00000-0  14210-3 0  9991,2 52348  53.2177  63.4399 0001315  84.0963 276.0179 15.08852344123494,6917.843,95.437,540.617,538.798,0.0
52348.0,STARLINK-3829,PAYLOAD,2024-07-06 20:01:00,15.08830434,0.000147,53.2186,61.3618,91.9857,268.1304,-5.0396e-05,-1.09e-05,0.0,0 STARLINK-3829,1 52348U 22045T   24188.83403389 -.00001090  00000-0 -50396-4 0  9995,2 52348  53.2186  61.3618 0001470  91.9857 268.1304 15.08830434123562,6917.91,95.438,540.792,538.758,0.0
52348.0,STARLINK-3829,PAYLOAD,2024-07-06 21:36:23,15.0883374,0.0001435,53.2174,61.063,89.6789,270.4368,-9.9596e-05,-1.872e-05,0.0,0 STARLINK-3829,1 52348U 22045T   24188.90027244 -.00001872  00000-0 -99596-4 0  9998,2 52348  53.2174  61.0630 0001435  89.6789 270.4368 15.08833740123579,6917.9,95.438,540.757,538.772,0.0
52348.0,STARLINK-3829,PAYLOAD,2024-07-07 00:47:09,15.08839056,0.0001337,53.2171,60.4677,89.2618,270.8527,-1.071e-05,-4.58e-06,0.0,0 STARLINK-3829,1 52348U 22045T   24189.03274989 -.00000458  00000-0 -10710-4 0  9993,2 52348  53.2171  60.4677 0001337  89.2618 270.8527 15.08839056123597,6917.883,95.438,540.673,538.823,0.0
52348.0,STARLINK-3829,PAYLOAD,2024-07-07 08:44:04,15.08846726,0.0001266,53.2167,58.9804,88.1051,272.0086,0.00011676,1.571e-05,0.0,0 STARLINK-3829,1 52348U 22045T   24189.36394609  .00001571  00000-0  11676-3 0  9997,2 52348  53.2167  58.9804 0001266  88.1051 272.0086 15.08846726123648,6917.86,95.437,540.601,538.849,0.0
52348.0,STARLINK-3829,PAYLOAD,2024-07-08 08:34:51,15.08852684,0.0001162,53.2164,54.5189,102.4529,257.6593,0.00034273,5.173e-05,0.0,0 STARLINK-3829,1 52348U 22045T   24190.35754477  .00005173  00000-0  34273-3 0  9991,2 52348  53.2164  54.5189 0001162 102.4529 257.6593 15.08852684123796,6917.842,95.437,540.51,538.903,0.0
52348.0,STARLINK-3829,PAYLOAD,2024-07-08 21:17:57,15.08839818,0.0001434,53.2181,52.1403,104.0233,256.0919,0.00012415,1.688e-05,0.0,0 STARLINK-3829,1 52348U 22045T   24190.88747034  .00001688  00000-0  12415-3 0  9991,2 52348  53.2181  52.1403 0001434 104.0233 256.0919 15.08839818123878,6917.881,95.438,540.738,538.754,0.0
52348.0,STARLINK-3829,PAYLOAD,2024-07-09 21:08:44,15.08841787,0.0001291,53.2182,47.6795,119.3854,240.7267,-1.9671e-05,-6.01e-06,0.0,0 STARLINK-3829,1 52348U 22045T   24191.88107100 -.00000601  00000-0 -19671-4 0  9994,2 52348  53.2182  47.6795 0001291 119.3854 240.7267 15.08841787124023,6917.875,95.437,540.633,538.847,0.0
52348.0,STARLINK-3829,PAYLOAD,2024-07-10 14:37:59,15.08834514,0.0001278,53.2182,44.4084,109.7987,250.3143,8.1285e-05,1.006e-05,0.0,0 STARLINK-3829,1 52348U 22045T   24192.60971439  .00001006  00000-0  81285-4 0  9997,2 52348  53.2182  44.4084 0001278 109.7987 250.3143 15.08834514124136,6917.897,95.438,540.646,538.878,0.0
52348.0,STARLINK-3829,PAYLOAD,2024-07-10 20:59:31,15.0883773,0.0001227,53.218,43.2212,104.2582,255.8546,7.4706e-05,9.01e-06,0.0,0 STARLINK-3829,1 52348U 22045T   24192.87467346  .00000901  00000-0  74706-4 0  9996,2 52348  53.2180  43.2212 0001227 104.2582 255.8546 15.08837730124173,6917.887,95.438,540.601,538.904,0.0
52348.0,STARLINK-3829,PAYLOAD,2024-07-11 00:10:17,15.0883904,0.0001231,53.2179,42.6245,107.5006,252.6121,8.2629e-05,1.027e-05,0.0,0 STARLINK-3829,1 52348U 22045T   24193.00715218  .00001027  00000-0  82629-4 0  9999,2 52348  53.2179  42.6245 0001231 107.5006 252.6121 15.08839040124194,6917.883,95.438,540.6,538.897,0.0
52348.0,STARLINK-3829,PAYLOAD,2024-07-11 20:50:18,15.08838334,0.0001223,53.2174,38.7588,75.1476,284.9652,0.00012123,1.642e-05,0.0,0 STARLINK-3829,1 52348U 22045T   24193.86827516  .00001642  00000-0  12123-3 0  9992,2 52348  53.2174  38.7588 0001223  75.1476 284.9652 15.08838334124324,6917.885,95.438,540.597,538.904,0.0
52348.0,STARLINK-3829,PAYLOAD,2024-07-12 00:01:05,15.08839623,0.0001124,53.2174,38.1647,78.8167,281.2951,0.00011826,1.595e-05,0.0,0 STARLINK-3829,1 52348U 22045T   24194.00075451  .00001595  00000-0  11826-3 0  9998,2 52348  53.2174  38.1647 0001124  78.8167 281.2951 15.08839623124347,6917.882,95.438,540.524,538.969,0.0
52348.0,STARLINK-3829,PAYLOAD,2024-07-12 06:22:37,15.0885024,0.0001285,53.2191,36.9759,102.9258,257.1877,0.00017516,2.502e-05,0.0,0 STARLINK-3829,1 52348U 22045T   24194.26570602  .00002502  00000-0  17516-3 0  9995,2 52348  53.2191  36.9759 0001285 102.9258 257.1877 15.08850240124385,6917.849,95.437,540.603,538.825,0.0
52348.0,STARLINK-3829,PAYLOAD,2024-07-12 20:41:06,15.08838244,0.0001207,53.2177,34.3008,90.2782,269.8348,6.4578e-05,7.4e-06,0.0,0 STARLINK-3829,1 52348U 22045T   24194.86187905  .00000740  00000-0  64578-4 0  9994,2 52348  53.2177  34.3008 0001207  90.2782 269.8348 15.08838244124476,6917.886,95.438,540.586,538.916,0.0
52348.0,STARLINK-3829,PAYLOAD,2024-07-13 06:13:24,15.08849423,0.0001262,53.2184,32.5153,76.6854,283.4279,0.00016649,2.363e-05,0.0,0 STARLINK-3829,1 52348U 22045T   24195.25931061  .00002363  00000-0  16649-3 0  9996,2 52348  53.2184  32.5153 0001262  76.6854 283.4279 15.08849423124537,6917.852,95.437,540.59,538.844,0.0
52348.0,STARLINK-3829,PAYLOAD,2024-07-13 20:31:53,15.0884141,0.0001303,53.2182,29.8376,68.5523,291.5608,7.207e-05,8.59e-06,0.0,0 STARLINK-3829,1 52348U 22045T   24195.85547855  .00000859  00000-0  72070-4 0  9995,2 52348  53.2182  29.8376 0001303  68.5523 291.5608 15.08841410124624,6917.876,95.437,540.642,538.84,0.0
52348.0,STARLINK-3829,PAYLOAD,2024-07-13 22:07:16,15.08845428,0.0001367,53.2189,29.5406,70.4677,289.6463,0.00010805,1.432e-05,0.0,0 STARLINK-3829,1 52348U 22045T   24195.92171560  .00001432  00000-0  10805-3 0  9994,2 52348  53.2189  29.5406 0001367  70.4677 289.6463 15.08845428124635,6917.864,95.437,540.674,538.783,0.0
52348.0,STARLINK-3829,PAYLOAD,2024-07-14 12:25:44,15.08844327,0.0001408,53.2174,26.8699,84.0373,276.078,0.00010309,1.353e-05,0.0,0 STARLINK-3829,1 52348U 22045T   24196.51787368  .00001353  00000-0  10309-3 0  9990,2 52348  53.2174  26.8699 0001408  84.0373 276.0780 15.08844327124722,6917.867,95.437,540.706,538.758,0.0
52348.0,STARLINK-3829,PAYLOAD,2024-07-14 20:22:39,15.08845731,0.0001241,53.2176,25.3787,79.1567,280.9565,0.00013725,1.897e-05,0.0,0 STARLINK-3829,1 52348U 22045T   24196.84907353  .00001897  00000-0  13725-3 0  9992,2 52348  53.2176  25.3787 0001241  79.1567 280.9565 15.08845731124771,6917.863,95.437,540.586,538.869,0.0
52348.0,STARLINK-3829,PAYLOAD,2024-07-15 12:16:32,15.08828243,0.0001536,53.2186,22.4063,81.5727,278.5439,-1.5822e-05,-5.4e-06,0.0,0 STARLINK-3829,1 52348U 22045T   24197.51148327 -.00000540  00000-0 -15822-4 0  9992,2 52348  53.2186  22.4063 0001536  81.5727 278.5439 15.08828243124872,6917.916,95.438,540.844,538.719,0.0
52348.0,STARLINK-3829,PAYLOAD,2024-07-15 18:38:04,15.08833413,0.0001269,53.2175,21.2172,83.2162,276.8975,9.4156e-06,-1.38e-06,0.0,0 STARLINK-3829,1 52348U 22045T   24197.77644002 -.00000138  00000-0  94156-5 0  9991,2 52348  53.2175  21.2172 0001269  83.2162 276.8975 15.08833413124919,6917.901,95.438,540.643,538.888,0.0
52348.0,STARLINK-3829,PAYLOAD,2024-07-16 05:45:45,15.08848127,0.0001494,53.2182,19.1337,93.5766,266.5397,0.00027116,4.031e-05,0.0,0 STARLINK-3829,1 52348U 22045T   24198.24011554  .00004031  00000-0  27116-3 0  9999,2 52348  53.2182  19.1337 0001494  93.5766 266.5397 15.08848127124989,6917.856,95.437,540.754,538.687,0.0
52348.0,STARLINK-3829,PAYLOAD,2024-07-16 18:28:51,15.08843963,0.0001621,53.2192,16.7555,98.7825,261.3351,0.00027728,4.128e-05,0.0,0 STARLINK-3829,1 52348U 22045T   24198.77003805  .00004128  00000-0  27728-3 0  9993,2 52348  53.2192  16.7555 0001621  98.7825 261.3351 15.08843963125066,6917.868,95.437,540.855,538.612,0.0
52348.0,STARLINK-3829,PAYLOAD,2024-07-17 18:19:38,15.08835812,0.0001464,53.2186,12.2938,106.9895,253.1257,3.6893e-05,2.99e-06,0.0,0 STARLINK-3829,1 52348U 22045T   24199.76364173  .00000299  00000-0  36893-4 0  9990,2 52348  53.2186  12.2938 0001464 106.9895 253.1257 15.08835812125214,6917.893,95.438,540.771,538.745,0.0
